NORAD_CAT_ID,OBJECT_NAME,OBJECT_TYPE,EPOCH,MEAN_MOTION,ECCENTRICITY,INCLINATION,RA_OF_ASC_NODE,ARG_OF_PERICENTER,MEAN_ANOMALY,BSTAR,MEAN_MOTION_DOT,MEAN_MOTION_DDOT,TLE_LINE0,TLE_LINE1,TLE_LINE2,SEMIMAJOR_AXIS,PERIOD,APOGEE,PERIGEE,DECAYED
53779.0,STARLINK-4706,PAYLOAD,2022-12-05 14:00:01,15.08826369,0.0002109,53.2173,216.8262,48.7695,140.7697,0.0028293,0.00045012,0.0,0 STARLINK-4706,1 53779U 22111G   22339.58335648  .00045012  00000-0  28293-2 0  9997,2 53779  53.2173 216.8262 0002109  48.7695 140.7697 15.08826369  1308,6917.922,95.438,541.246,538.328,0.0
53779.0,STARLINK-4706,PAYLOAD,2022-12-05 19:31:22,15.08837399,0.0002236,53.2182,215.7939,50.1187,310.0002,0.00013791,1.907e-05,0.0,0 STARLINK-4706,1 53779U 22111G   22339.81345906  .00001907  00000-0  13791-3 0  9994,2 53779  53.2182 215.7939 0002236  50.1187 310.0002 15.08837399 13255,6917.888000000001,95.438,541.3,538.206,0.0
53779.0,STARLINK-4706,PAYLOAD,2022-12-06 01:52:55,15.08840357,0.000224,53.2181,214.604,48.5445,311.5739,0.00010605,1.4e-05,0.0,0 STARLINK-4706,1 53779U 22111G   22340.07841839  .00001400  00000-0  10605-3 0  9999,2 53779  53.2181 214.6040 0002240  48.5445 311.5739 15.08840357 14104,6917.879,95.438,541.294,538.195,0.0
53779.0,STARLINK-4706,PAYLOAD,2022-12-06 16:11:24,15.08836965,0.0002139,53.2182,211.9274,56.5967,303.523,-2.5286e-05,-6.91e-06,0.0,0 STARLINK-4706,1 53779U 22111G   22340.67458580 -.00000691  00000-0 -25286-4 0  9997,2 53779  53.2182 211.9274 0002139  56.5967 303.5230 15.08836965 14195,6917.89,95.438,541.234,538.275,0.0
53779.0,STARLINK-4706,PAYLOAD,2022-12-07 01:43:43,15.0883092,0.0002072,53.2178,210.1434,46.8513,313.2652,-0.00012763,-2.318e-05,0.0,0 STARLINK-4706,1 53779U 22111G   22341.07203467 -.00002318  00000-0 -12763-3 0  9997,2 53779  53.2178 210.1434 0002072  46.8513 313.2652 15.08830920 13442,6917.908,95.438,541.207,538.34,0.0
53779.0,STARLINK-4706,PAYLOAD,2022-12-07 23:59:06,15.08842294,0.0002195,53.2182,205.9814,48.855,311.2631,2.6355e-06,-2.46e-06,0.0,0 STARLINK-4706,1 53779U 22111G   22341.99938549 -.00000246  00000-0  26355-5 0  9995,2 53779  53.2182 205.9814 0002195  48.8550 311.2631 15.08842294 13587,6917.873000000001,95.437,541.257,538.22,0.0
53779.0,STARLINK-4706,PAYLOAD,2022-12-09 14:08:23,15.0883064,0.0002304,53.218,198.8454,45.5596,314.5584,-4.8592e-06,-3.66e-06,0.0,0 STARLINK-4706,1 53779U 22111G   22343.58915535 -.00000366  00000-0 -48592-5 0  9993,2 53779  53.2180 198.8454 0002304  45.5596 314.5584 15.08830640 13823,6917.909000000002,95.438,541.368,538.18,0.0
53779.0,STARLINK-4706,PAYLOAD,2022-12-09 20:29:56,15.08822073,0.0002133,53.2181,197.6552,42.0973,318.0183,-0.00017261,-3.033e-05,0.0,0 STARLINK-4706,1 53779U 22111G   22343.85412886 -.00003033  00000-0 -17261-3 0  9995,2 53779  53.2181 197.6552 0002133  42.0973 318.0183 15.08822073 13860,6917.935,95.439,541.276,538.325,0.0
53779.0,STARLINK-4706,PAYLOAD,2022-12-10 01:16:06,15.08821173,0.0001952,53.2179,196.763,44.9966,315.1184,-0.00016308,-2.881e-05,0.0,0 STARLINK-4706,1 53779U 22111G   22344.05285052 -.00002881  00000-0 -16308-3 0  9992,2 53779  53.2179 196.7630 0001952  44.9966 315.1184 15.08821173 14708,6917.938,95.439,541.153,538.453,0.0
53779.0,STARLINK-4706,PAYLOAD,2022-12-10 18:45:19,15.08833715,0.0002433,53.2194,193.4981,39.1172,320.9995,9.1111e-06,-1.43e-06,0.0,0 STARLINK-4706,1 53779U 22111G   22344.78148032 -.00000143  00000-0  91111-5 0  9993,2 53779  53.2194 193.4981 0002433  39.1172 320.9995 15.08833715 14000,6917.9,95.438,541.448,538.081,0.0
53779.0,STARLINK-4706,PAYLOAD,2022-12-10 20:20:42,15.08837473,0.0002119,53.2181,193.1964,42.1541,317.9614,3.3601e-05,2.47e-06,0.0,0 STARLINK-4706,1 53779U 22111G   22344.84771608  .00000247  00000-0  33601-4 0  9994,2 53779  53.2181 193.1964 0002119  42.1541 317.9614 15.08837473 14828,6917.888000000001,95.438,541.219,538.2869999999998,0.0
53779.0,STARLINK-4706,PAYLOAD,2022-12-11 20:11:29,15.08829827,0.000194,53.218,188.735,40.6427,319.471,0.00016823,2.39e-05,0.0,0 STARLINK-4706,1 53779U 22111G   22345.84131832  .00002390  00000-0  16823-3 0  9991,2 53779  53.2180 188.7350 0001940  40.6427 319.4710 15.08829827 14168,6917.911,95.438,541.119,538.434,0.0
53779.0,STARLINK-4706,PAYLOAD,2022-12-11 23:22:16,15.08831844,0.0001931,53.2178,188.1399,41.6582,318.4557,0.0001753,2.502e-05,0.0,0 STARLINK-4706,1 53779U 22111G   22345.97379737  .00002502  00000-0  17530-3 0  9994,2 53779  53.2178 188.1399 0001931  41.6582 318.4557 15.08831844 14996,6917.905,95.438,541.106,538.434,0.0
53779.0,STARLINK-4706,PAYLOAD,2022-12-13 13:31:31,15.08837307,0.0001887,53.2174,181.003,52.9984,307.118,-3.2398000000000004e-05,-8.04e-06,0.0,0 STARLINK-4706,1 53779U 22111G   22347.56356299 -.00000804  00000-0 -32398-4 0  9994,2 53779  53.2174 181.0030 0001887  52.9984 307.1180 15.08837307 15232,6917.889,95.438,541.059,538.448,0.0
53779.0,STARLINK-4706,PAYLOAD,2022-12-14 13:22:18,15.08839725,0.0002278,53.2169,176.5435,47.0682,313.0501,4.4772e-05,4.24e-06,0.0,0 STARLINK-4706,1 53779U 22111G   22348.55716081  .00000424  00000-0  44772-4 0  9998,2 53779  53.2169 176.5435 0002278  47.0682 313.0501 15.08839725 15384,6917.880999999999,95.438,541.322,538.17,0.0
53779.0,STARLINK-4706,PAYLOAD,2022-12-14 19:43:50,15.08842398,0.0001949,53.2163,175.3534,45.9634,314.1518,4.5097e-05,4.3e-06,0.0,0 STARLINK-4706,1 53779U 22111G   22348.82211761  .00000430  00000-0  45097-4 0  9991,2 53779  53.2163 175.3534 0001949  45.9634 314.1518 15.08842398 15428,6917.873000000001,95.437,541.086,538.39,0.0
53779.0,STARLINK-4706,PAYLOAD,2022-12-15 13:13:05,15.0884176,0.0002069,53.2189,172.0838,58.6149,301.5045,2.8699e-05,1.69e-06,0.0,0 STARLINK-4706,1 53779U 22111G   22349.55075697  .00000169  00000-0  28699-4 0  9996,2 53779  53.2189 172.0838 0002069  58.6149 301.5045 15.08841760 15532,6917.875,95.437,541.1709999999998,538.309,0.0
53779.0,STARLINK-4706,PAYLOAD,2022-12-15 19:34:38,15.08834495,0.0001968,53.2185,170.8936,56.7789,303.3392,-2.7772e-05,-7.299999999999999e-06,0.0,0 STARLINK-4706,1 53779U 22111G   22349.81572372 -.00000730  00000-0 -27772-4 0  9994,2 53779  53.2185 170.8936 0001968  56.7789 303.3392 15.08834495 15575,6917.897,95.438,541.124,538.401,0.0
53779.0,STARLINK-4706,PAYLOAD,2022-12-15 22:45:24,15.08835295,0.0001987,53.218,170.2988,53.7977,306.3198,-2.2453000000000007e-05,-6.45e-06,0.0,0 STARLINK-4706,1 53779U 22111G   22349.94820330 -.00000645  00000-0 -22453-4 0  9994,2 53779  53.2180 170.2988 0001987  53.7977 306.3198 15.08835295 14786,6917.895,95.438,541.134,538.385,0.0
53779.0,STARLINK-4706,PAYLOAD,2022-12-16 13:03:52,15.08841333,0.0002012,53.218,167.6224,52.4067,307.7108,-1.9464e-05,-5.98e-06,0.0,0 STARLINK-4706,1 53779U 22111G   22350.54435984 -.00000598  00000-0 -19464-4 0  9994,2 53779  53.2180 167.6224 0002012  52.4067 307.7108 15.08841333 15681,6917.876,95.437,541.133,538.349,0.0
53779.0,STARLINK-4706,PAYLOAD,2022-12-16 21:00:48,15.08843486,0.0002026,53.2179,166.1355,52.1198,307.9977,-8.062600000000002e-07,-3.01e-06,0.0,0 STARLINK-4706,1 53779U 22111G   22350.87555723 -.00000301  00000-0 -80626-6 0  9996,2 53779  53.2179 166.1355 0002026  52.1198 307.9977 15.08843486 14928,6917.87,95.437,541.136,538.3330000000002,0.0
53779.0,STARLINK-4706,PAYLOAD,2022-12-17 11:19:15,15.08842453,0.0001963,53.2179,163.4589,51.582,308.5348,7.2506e-05,8.66e-06,0.0,0 STARLINK-4706,1 53779U 22111G   22351.47171267  .00000866  00000-0  72506-4 0  9990,2 53779  53.2179 163.4589 0001963  51.5820 308.5348 15.08842453 15823,6917.873000000001,95.437,541.096,538.38,0.0
53779.0,STARLINK-4706,PAYLOAD,2022-12-17 19:16:11,15.08843074,0.0001969,53.2179,161.9724,50.9634,309.1533,7.9801e-05,9.82e-06,0.0,0 STARLINK-4706,1 53779U 22111G   22351.80291103  .00000982  00000-0  79801-4 0  9993,2 53779  53.2179 161.9724 0001969  50.9634 309.1533 15.08843074 15877,6917.871,95.437,541.0980000000002,538.374,0.0
53779.0,STARLINK-4706,PAYLOAD,2022-12-18 11:10:04,15.08808759,0.0001738,53.2175,158.9997,57.5877,302.5283,0.00032219,4.839e-05,0.0,0 STARLINK-4706,1 53779U 22111G   22352.46532828  .00004839  00000-0  32219-3 0  9994,2 53779  53.2175 158.9997 0001738  57.5877 302.5283 15.08808759 15169,6917.976,95.44,541.043,538.639,0.0
53779.0,STARLINK-4706,PAYLOAD,2022-12-18 17:31:35,15.08894609,0.0001685,53.2179,157.81,52.5995,307.515,-0.00073671,-0.00012011,0.0,0 STARLINK-4706,1 53779U 22111G   22352.73026717 -.00012011  00000-0 -73671-3 0  9999,2 53779  53.2179 157.8100 0001685  52.5995 307.5150 15.08894609 16016,6917.7130000000025,95.434,540.744,538.413,0.0
53779.0,STARLINK-4706,PAYLOAD,2022-12-19 04:39:17,15.08845556,0.0002011,53.2176,155.7285,51.5264,308.5908,1.2494e-05,-8.9e-07,0.0,0 STARLINK-4706,1 53779U 22111G   22353.19395145 -.00000089  00000-0  12494-4 0  9992,2 53779  53.2176 155.7285 0002011  51.5264 308.5908 15.08845556 15272,6917.863,95.437,541.12,538.337,0.0
53779.0,STARLINK-4706,PAYLOAD,2022-12-19 20:33:09,15.08841265,0.0002088,53.2184,152.7545,61.3332,298.7870000000001,-9.2913e-05,-1.767e-05,0.0,0 STARLINK-4706,1 53779U 22111G   22353.85635663 -.00001767  00000-0 -92913-4 0  9996,2 53779  53.2184 152.7545 0002088  61.3332 298.7870 15.08841265 16188,6917.877,95.437,541.186,538.297,0.0
53779.0,STARLINK-4706,PAYLOAD,2022-12-19 22:08:32,15.08840241,0.0001971,53.2181,152.4571,49.8087,310.3078,-6.7363e-05,-1.36e-05,0.0,0 STARLINK-4706,1 53779U 22111G   22353.92259635 -.00001360  00000-0 -67363-4 0  9995,2 53779  53.2181 152.4571 0001971  49.8087 310.3078 15.08840241 15384,6917.88,95.438,541.1080000000002,538.381,0.0
53779.0,STARLINK-4706,PAYLOAD,2022-12-20 12:27:00,15.08843705,0.0001992,53.2181,149.781,51.17100000000001,308.946,4.7252e-05,4.64e-06,0.0,0 STARLINK-4706,1 53779U 22111G   22354.51875039  .00000464  00000-0  47252-4 0  9990,2 53779  53.2181 149.7810 0001992  51.1710 308.9460 15.08843705 16287,6917.869000000002,95.437,541.112,538.356,0.0
